NORAD_CAT_ID,OBJECT_NAME,OBJECT_TYPE,EPOCH,MEAN_MOTION,ECCENTRICITY,INCLINATION,RA_OF_ASC_NODE,ARG_OF_PERICENTER,MEAN_ANOMALY,BSTAR,MEAN_MOTION_DOT,MEAN_MOTION_DDOT,TLE_LINE0,TLE_LINE1,TLE_LINE2,SEMIMAJOR_AXIS,PERIOD,APOGEE,PERIGEE,DECAYED
54067.0,STARLINK-5174,PAYLOAD,2023-01-04 12:54:19,15.0884343,0.0002292,53.2165,152.0168,44.9102,315.2076,-9.6982e-06,-4.43e-06,0.0,0 STARLINK-5174,1 54067U 22136S   23004.53772486 -.00000443  00000-0 -96982-5 0  9999,2 54067  53.2165 152.0168 0002292  44.9102 315.2076 15.08843430 11703,6917.87,95.437,541.32,538.149,0.0
54067.0,STARLINK-5174,PAYLOAD,2023-01-04 16:05:05,15.08848356,0.0002290999999999,53.2164,151.4221,45.243,314.8748,3.4002e-05,2.53e-06,0.0,0 STARLINK-5174,1 54067U 22136S   23004.67019978  .00000253  00000-0  34002-4 0  9995,2 54067  53.2164 151.4221 0002291  45.2430 314.8748 15.08848356 11727,6917.855,95.437,541.305,538.135,0.0
54067.0,STARLINK-5174,PAYLOAD,2023-01-05 04:48:09,15.08856034,0.0001940999999999,53.2161,149.0417,45.6535,314.4616,5.1903e-05,5.38e-06,0.0,0 STARLINK-5174,1 54067U 22136S   23005.20010888  .00000538  00000-0  51903-4 0  9991,2 54067  53.2161 149.0417 0001941  45.6535 314.4616 15.08856034 12289,6917.831,95.437,541.039,538.354,0.0
54067.0,STARLINK-5174,PAYLOAD,2023-01-05 11:09:42,15.08845397,0.0002306,53.2156,147.8526,47.1966,312.922,0.00013449,1.853e-05,0.0,0 STARLINK-5174,1 54067U 22136S   23005.46507186  .00001853  00000-0  13449-3 0  9994,2 54067  53.2156 147.8526 0002306  47.1966 312.9220 15.08845397 12320,6917.864000000001,95.437,541.3240000000002,538.134,0.0
54067.0,STARLINK-5174,PAYLOAD,2023-01-05 15:55:51,15.08839122,0.0002248,53.2161,146.9603,45.2149,314.9025,0.00012472,1.697e-05,0.0,0 STARLINK-5174,1 54067U 22136S   23005.66379540  .00001697  00000-0  12472-3 0  9998,2 54067  53.2161 146.9603 0002248  45.2149 314.9025 15.08839122 11872,6917.8830000000025,95.438,541.303,538.193,0.0
54067.0,STARLINK-5174,PAYLOAD,2023-01-06 09:25:07,15.08834825,0.0002169,53.2176,143.6902,38.0316,322.0829,-0.0001262999999999,-2.298e-05,0.0,0 STARLINK-5174,1 54067U 22136S   23006.39244603 -.00002298  00000-0 -12630-3 0  9996,2 54067  53.2176 143.6902 0002169  38.0316 322.0829 15.08834825 12465,6917.896,95.438,541.262,538.261,0.0
54067.0,STARLINK-5174,PAYLOAD,2023-01-06 18:57:26,15.08831942,0.0002228,53.217,141.906,41.5206,318.5955,-0.00013756,-2.476e-05,0.0,0 STARLINK-5174,1 54067U 22136S   23006.78988942 -.00002476  00000-0 -13756-3 0  9998,2 54067  53.2170 141.9060 0002228  41.5206 318.5955 15.08831942 12049,6917.905,95.438,541.311,538.229,0.0
54067.0,STARLINK-5174,PAYLOAD,2023-01-07 07:40:30,15.08838765,0.0002095,53.2169,139.5271,25.7466,334.36300000000006,-7.0239e-05,-1.406e-05,0.0,0 STARLINK-5174,1 54067U 22136S   23007.31980208 -.00001406  00000-0 -70239-4 0  9997,2 54067  53.2169 139.5271 0002095  25.7466 334.3630 15.08838765 12606,6917.884,95.438,541.198,538.3,0.0
54067.0,STARLINK-5174,PAYLOAD,2023-01-08 09:06:42,15.08822451,0.0002279,53.2169,134.7706,28.1374,331.9741,4.2071e-05,3.81e-06,0.0,0 STARLINK-5174,1 54067U 22136S   23008.37965322  .00000381  00000-0  42071-4 0  9996,2 54067  53.2169 134.7706 0002279  28.1374 331.9741 15.08822451 12763,6917.934,95.439,541.376,538.222,0.0
54067.0,STARLINK-5174,PAYLOAD,2023-01-08 17:03:37,15.08832802,0.0002217,53.2172,133.2836,31.5765,328.536,0.00011372,1.522e-05,0.0,0 STARLINK-5174,1 54067U 22136S   23008.71084633  .00001522  00000-0  11372-3 0  9998,2 54067  53.2172 133.2836 0002217  31.5765 328.5360 15.08832802 12815,6917.901999999999,95.438,541.3009999999998,538.234,0.0
54067.0,STARLINK-5174,PAYLOAD,2023-01-09 07:22:04,15.08863919,0.0002492,53.2188,130.6081,33.1566,326.9582,-0.0003086,-5.2e-05,0.0,0 STARLINK-5174,1 54067U 22136S   23009.30699985 -.00005200  00000-0 -30860-3 0  9998,2 54067  53.2188 130.6081 0002492  33.1566 326.9582 15.08863919 12908,6917.807,95.436,541.396,537.948,0.0
54067.0,STARLINK-5174,PAYLOAD,2023-01-09 10:32:51,15.08832509,0.0002343,53.2171,130.0125,32.1573,327.9562,8.540000000000003e-05,1.071e-05,0.0,0 STARLINK-5174,1 54067U 22136S   23009.43948859  .00001071  00000-0  85400-4 0  9990,2 54067  53.2171 130.0125 0002343  32.1573 327.9562 15.08832509 12444,6917.903,95.438,541.389,538.1469999999998,0.0
54067.0,STARLINK-5174,PAYLOAD,2023-01-09 16:54:24,15.08828491,0.0002389,53.2173,128.8232,31.9541,328.1596,4.374e-05,4.08e-06,0.0,0 STARLINK-5174,1 54067U 22136S   23009.70445402  .00000408  00000-0  43740-4 0  9990,2 54067  53.2173 128.8232 0002389  31.9541 328.1596 15.08828491 12964,6917.916,95.438,541.433,538.128,0.0
54067.0,STARLINK-5174,PAYLOAD,2023-01-10 11:59:02,15.08836747,0.0002298,53.2172,125.2551,28.8803,331.2316,-3.0001e-05,-7.66e-06,0.0,0 STARLINK-5174,1 54067U 22136S   23010.49933286 -.00000766  00000-0 -30001-4 0  9995,2 54067  53.2172 125.2551 0002298  28.8803 331.2316 15.08836747 12602,6917.89,95.438,541.345,538.1659999999998,0.0
54067.0,STARLINK-5174,PAYLOAD,2023-01-10 16:45:11,15.08836866,0.0002319,53.2173,124.3631,28.4685,331.6434,-2.8581e-05,-7.43e-06,0.0,0 STARLINK-5174,1 54067U 22136S   23010.69805297 -.00000743  00000-0 -28581-4 0  9992,2 54067  53.2173 124.3631 0002319  28.4685 331.6434 15.08836866 13114,6917.89,95.438,541.359,538.151,0.0
54067.0,STARLINK-5174,PAYLOAD,2023-01-11 13:25:12,15.08841376,0.0002363,53.2177,120.4972,27.325,332.7866,-3.5614e-05,-8.55e-06,0.0,0 STARLINK-5174,1 54067U 22136S   23011.55916997 -.00000855  00000-0 -35614-4 0  9997,2 54067  53.2177 120.4972 0002363  27.3250 332.7866 15.08841376 12761,6917.876,95.437,541.376,538.106,0.0
54067.0,STARLINK-5174,PAYLOAD,2023-01-12 00:32:54,15.08844953,0.0002376,53.2179,118.4154,25.6286,334.4824,-0.00010917,-2.026e-05,0.0,0 STARLINK-5174,1 54067U 22136S   23012.02285040 -.00002026  00000-0 -10917-3 0  9998,2 54067  53.2179 118.4154 0002376  25.6286 334.4824 15.08844953 13315,6917.865,95.437,541.374,538.087,0.0
54067.0,STARLINK-5174,PAYLOAD,2023-01-12 10:05:12,15.08845132,0.0002672,53.217,116.6324,24.1469,335.9648,8.973600000000001e-05,1.14e-05,0.0,0 STARLINK-5174,1 54067U 22136S   23012.42028263  .00001140  00000-0  89736-4 0  9994,2 54067  53.2170 116.6324 0002672  24.1469 335.9648 15.08845132 13377,6917.865,95.437,541.578,537.881,0.0
54067.0,STARLINK-5174,PAYLOAD,2023-01-13 13:06:47,15.08820299,0.0002143,53.2172,111.5744,33.9345,326.1783,-9.1668e-05,-1.746e-05,0.0,0 STARLINK-5174,1 54067U 22136S   23013.54638848 -.00001746  00000-0 -91668-4 0  9995,2 54067  53.2172 111.5744 0002143  33.9345 326.1783 15.08820299 13541,6917.941,95.439,541.288,538.323,0.0
54067.0,STARLINK-5174,PAYLOAD,2023-01-13 16:17:34,15.0881333,0.0002044,53.2184,110.9779,31.7968,328.3147,-7.2978e-05,-1.449e-05,0.0,0 STARLINK-5174,1 54067U 22136S   23013.67887349 -.00001449  00000-0 -72978-4 0  9994,2 54067  53.2184 110.9779 0002044  31.7968 328.3147 15.08813330 13087,6917.962,95.439,541.241,538.413,0.0
54067.0,STARLINK-5174,PAYLOAD,2023-01-14 06:36:02,15.08857748,0.000229,53.2167,108.3054,23.2412,336.8683,-0.00049281,-8.127e-05,0.0,0 STARLINK-5174,1 54067U 22136S   23014.27502637 -.00008127  00000-0 -49281-3 0  9995,2 54067  53.2167 108.3054 0002290  23.2412 336.8683 15.08857748 13651,6917.826,95.436,541.275,538.107,0.0
54067.0,STARLINK-5174,PAYLOAD,2023-01-14 22:29:54,15.08821121,0.0002066999999999,53.2166,105.3319,31.8889,328.2228,0.00010023,1.307e-05,0.0,0 STARLINK-5174,1 54067U 22136S   23014.93743073  .00001307  00000-0  10023-3 0  9992,2 54067  53.2166 105.3319 0002067  31.8889 328.2228 15.08821121 13753,6917.938,95.439,541.2330000000001,538.373,0.0
54067.0,STARLINK-5174,PAYLOAD,2023-01-15 04:51:27,15.08814045,0.0002331999999999,53.2168,104.1425,45.0955,315.0226,3.6869e-05,2.98e-06,0.0,0 STARLINK-5174,1 54067U 22136S   23015.20240307  .00000298  00000-0  36869-4 0  9990,2 54067  53.2168 104.1425 0002332  45.0955 315.0226 15.08814045 13799,6917.96,95.439,541.438,538.211,0.0
54067.0,STARLINK-5174,PAYLOAD,2023-01-15 12:48:23,15.0881789,0.0001946,53.2159,102.6578,46.7605,313.3549,7.7919e-05,9.51e-06,0.0,0 STARLINK-5174,1 54067U 22136S   23015.53360246  .00000951  00000-0  77919-4 0  9998,2 54067  53.2159 102.6578 0001946  46.7605 313.3549 15.08817890 13364,6917.948,95.439,541.159,538.467,0.0
54067.0,STARLINK-5174,PAYLOAD,2023-01-15 22:20:41,15.08830089,0.0001968,53.2184,100.874,50.423,309.6936,8.2754e-05,1.029e-05,0.0,0 STARLINK-5174,1 54067U 22136S   23015.93103858  .00001029  00000-0  82754-4 0  9996,2 54067  53.2184 100.8740 0001968  50.4230 309.6936 15.08830089 13906,6917.911,95.438,541.137,538.414,0.0
54067.0,STARLINK-5174,PAYLOAD,2023-01-16 12:39:08,15.08855252,0.0001947,53.2181,98.1949,45.5289,314.5862,0.00014889,2.083e-05,0.0,0 STARLINK-5174,1 54067U 22136S   23016.52718185  .00002083  00000-0  14889-3 0  9991,2 54067  53.2181  98.1949 0001947  45.5289 314.5862 15.08855252 13990,6917.834,95.437,541.0459999999999,538.352,0.0
54067.0,STARLINK-5174,PAYLOAD,2023-01-16 22:11:29,15.08824722,0.0001569,53.2166,96.4111,48.3102,311.8024,-6.6326e-05,-1.343e-05,0.0,0 STARLINK-5174,1 54067U 22136S   23016.92464652 -.00001343  00000-0 -66326-4 0  9996,2 54067  53.2166  96.4111 0001569  48.3102 311.8024 15.08824722 14056,6917.927,95.439,540.878,538.707,0.0
54067.0,STARLINK-5174,PAYLOAD,2023-01-17 06:08:27,15.08802326,0.0001395,53.2176,94.9261,64.0451,296.0685,-0.00016345,-2.886e-05,0.0,0 STARLINK-5174,1 54067U 22136S   23017.25586872 -.00002886  00000-0 -16345-3 0  9990,2 54067  53.2176  94.9261 0001395  64.0451 296.0685 15.08802326 14104,6917.996,95.44,540.826,538.895,0.0
54067.0,STARLINK-5174,PAYLOAD,2023-01-18 10:45:20,15.08857782,0.0001716,53.2195,89.5726,70.6281,289.4897,0.00010313,1.354e-05,0.0,0 STARLINK-5174,1 54067U 22136S   23018.44815337  .00001354  00000-0  10313-3 0  9999,2 54067  53.2195  89.5726 0001716  70.6281 289.4897 15.08857782 14288,6917.826,95.436,540.878,538.504,0.0
